{
    "links": {
        "self": "http://www.neowsapp.com/rest/v1/neo/3841202?api_key=iIulBulltgU6a56xZRHN4H3l9WmuAYTsLGpBGhQ2"
    },
    "id": "3841202",
    "neo_reference_id": "3841202",
    "name": "(2019 GP20)",
    "designation": "2019 GP20",
    "nasa_jpl_url": "http://ssd.jpl.nasa.gov/sbdb.cgi?sstr=3841202",
    "absolute_magnitude_h": 24.5,
    "estimated_diameter": {
        "kilometers": {
            "estimated_diameter_min": 0.0334622374,
            "estimated_diameter_max": 0.0748238376
        },
        "meters": {
            "estimated_diameter_min": 33.4622374455,
            "estimated_diameter_max": 74.8238376074
        },
        "miles": {
            "estimated_diameter_min": 0.0207924639,
            "estimated_diameter_max": 0.0464933628
        },
        "feet": {
            "estimated_diameter_min": 109.7842471007,
            "estimated_diameter_max": 245.4850393757
        }
    },
    "is_potentially_hazardous_asteroid": false,
    "close_approach_data": [
        {
            "close_approach_date": "2019-04-10",
            "close_approach_date_full": "2019-Apr-10 15:54",
            "epoch_date_close_approach": 1554911640000,
            "relative_velocity": {
                "kilometers_per_second": "12.4275507324",
                "kilometers_per_hour": "44739.1826365936",
                "miles_per_hour": "27799.1882332767"
            },
            "miss_distance": {
                "astronomical": "0.1307477394",
                "lunar": "50.8608706266",
                "kilometers": "19559583.321555078",
                "miles": "12153761.4986049564"
            },
            "orbiting_body": "Earth"
        }
    ],
    "orbital_data": {
        "orbit_id": "2",
        "orbit_determination_date": "2019-04-16 07:29:11",
        "first_observation_date": "2019-04-08",
        "last_observation_date": "2019-04-16",
        "data_arc_in_days": 8,
        "observations_used": 34,
        "orbit_uncertainty": "8",
        "minimum_orbit_intersection": ".129701",
        "jupiter_tisserand_invariant": "4.781",
        "epoch_osculation": "2458582.5",
        "eccentricity": ".1722641670583273",
        "semi_major_axis": "1.346169320470557",
        "inclination": "23.89563354011126",
        "ascending_node_longitude": "202.2193587362264",
        "orbital_period": "570.4898997584984",
        "perihelion_distance": "1.114272583760222",
        "perihelion_argument": "332.2708977990484",
        "aphelion_distance": "1.578066057180892",
        "perihelion_time": "2458554.848649628609",
        "mean_anomaly": "17.44901380009484",
        "mean_motion": ".63103658829437",
        "equinox": "J2000",
        "orbit_class": {
            "orbit_class_type": "AMO",
            "orbit_class_description": "Near-Earth asteroid orbits similar to that of 1221 Amor",
            "orbit_class_range": "1.017 AU < q (perihelion) < 1.3 AU"
        }
    },
    "is_sentry_object": false
}